STRIX-1                 
1 53815U 22113A   26191.31158196  .00019028  00000+0  46506-3 0  9997
2 53815  97.4486 253.7621 0005292 144.6156 215.5442 15.40851647211001
STRIX-3                 
1 59224U 24047A   26191.29176370  .00006386  00000+0  30129-3 0  9993
2 59224  97.6627 167.3145 0012575 352.5366   7.5679 15.19760046128259
STRIX-4                 
1 60352U 24137A   26191.28597427  .00010807  00000+0  33669-3 0  9991
2 60352  43.0142 153.5248 0015689  97.2478 263.0160 15.33209899107562
STRIX-2                 
1 62406U 24248A   26191.28142962  .00003962  00000+0  25307-3 0  9990
2 62406  97.6293 146.7920 0013533 254.6419 105.3315 15.09162367 85079
STRIX-5                 
1 65971U 25229A   26191.27162581  .00001963  00000+0  14916-3 0  9991
2 65971  41.9265 159.3746 0037340 205.9513 153.9441 15.04569002 40456
STRIX-6                 
1 68291U 26056A   26191.17394275  .00001526  00000+0  14109-3 0  9993
2 68291  50.2818 241.1241 0016581 331.9062  28.0991 15.00315366 16727
STRIX-7                 
1 69177U 26112A   26191.19217076  .00002528  00000+0  20860-3 0  9999
2 69177  44.9078  71.6101 0024125 180.1834 179.9032 15.01585818  7335
STRIX-8                 
1 69701U 26146A   26191.04043310  .00002999  00000+0  22443-3 0  9992
2 69701  41.9901  41.6479 0007997 348.2849  11.7791 15.04406873  2006
