{"fetched_at":"2026-07-10T18:08:35.890Z","source":"https://celestrak.org/NORAD/elements/gp.php?NAME=STRIX&FORMAT=JSON","constellation":"synspective","records":[{"OBJECT_NAME":"STRIX-1","OBJECT_ID":"2022-113A","EPOCH":"2026-07-10T07:28:40.681344","CLASSIFICATION_TYPE":"U","MEAN_MOTION":15.40851647,"ECCENTRICITY":0.00052921,"INCLINATION":97.4486,"RA_OF_ASC_NODE":253.7621,"ARG_OF_PERICENTER":144.6156,"MEAN_ANOMALY":215.5442,"EPHEMERIS_TYPE":0,"NORAD_CAT_ID":53815,"ELEMENT_SET_NO":999,"REV_AT_EPOCH":21100,"BSTAR":0.00046505756,"MEAN_MOTION_DOT":0.00019028,"MEAN_MOTION_DDOT":0},{"OBJECT_NAME":"STRIX-3","OBJECT_ID":"2024-047A","EPOCH":"2026-07-10T07:00:08.383680","CLASSIFICATION_TYPE":"U","MEAN_MOTION":15.19760046,"ECCENTRICITY":0.00125753,"INCLINATION":97.6627,"RA_OF_ASC_NODE":167.3145,"ARG_OF_PERICENTER":352.5366,"MEAN_ANOMALY":7.5679,"EPHEMERIS_TYPE":0,"NORAD_CAT_ID":59224,"ELEMENT_SET_NO":999,"REV_AT_EPOCH":12825,"BSTAR":0.00030128974,"MEAN_MOTION_DOT":0.00006386,"MEAN_MOTION_DDOT":0},{"OBJECT_NAME":"STRIX-4","OBJECT_ID":"2024-137A","EPOCH":"2026-07-10T06:51:48.176928","CLASSIFICATION_TYPE":"U","MEAN_MOTION":15.33209899,"ECCENTRICITY":0.00156898,"INCLINATION":43.0142,"RA_OF_ASC_NODE":153.5248,"ARG_OF_PERICENTER":97.2478,"MEAN_ANOMALY":263.016,"EPHEMERIS_TYPE":0,"NORAD_CAT_ID":60352,"ELEMENT_SET_NO":999,"REV_AT_EPOCH":10756,"BSTAR":0.00033668616,"MEAN_MOTION_DOT":0.00010807,"MEAN_MOTION_DDOT":0},{"OBJECT_NAME":"STRIX-2","OBJECT_ID":"2024-248A","EPOCH":"2026-07-10T06:45:15.519168","CLASSIFICATION_TYPE":"U","MEAN_MOTION":15.09162367,"ECCENTRICITY":0.0013533,"INCLINATION":97.6293,"RA_OF_ASC_NODE":146.792,"ARG_OF_PERICENTER":254.6419,"MEAN_ANOMALY":105.3315,"EPHEMERIS_TYPE":0,"NORAD_CAT_ID":62406,"ELEMENT_SET_NO":999,"REV_AT_EPOCH":8507,"BSTAR":0.00025307476,"MEAN_MOTION_DOT":0.00003962,"MEAN_MOTION_DDOT":0},{"OBJECT_NAME":"STRIX-5","OBJECT_ID":"2025-229A","EPOCH":"2026-07-10T06:31:08.469984","CLASSIFICATION_TYPE":"U","MEAN_MOTION":15.04569002,"ECCENTRICITY":0.00373403,"INCLINATION":41.9265,"RA_OF_ASC_NODE":159.3746,"ARG_OF_PERICENTER":205.9513,"MEAN_ANOMALY":153.9441,"EPHEMERIS_TYPE":0,"NORAD_CAT_ID":65971,"ELEMENT_SET_NO":999,"REV_AT_EPOCH":4045,"BSTAR":0.00014915832,"MEAN_MOTION_DOT":0.00001963,"MEAN_MOTION_DDOT":0},{"OBJECT_NAME":"STRIX-6","OBJECT_ID":"2026-056A","EPOCH":"2026-07-10T04:10:28.653600","CLASSIFICATION_TYPE":"U","MEAN_MOTION":15.00315366,"ECCENTRICITY":0.00165813,"INCLINATION":50.2818,"RA_OF_ASC_NODE":241.1241,"ARG_OF_PERICENTER":331.9062,"MEAN_ANOMALY":28.0991,"EPHEMERIS_TYPE":0,"NORAD_CAT_ID":68291,"ELEMENT_SET_NO":999,"REV_AT_EPOCH":1672,"BSTAR":0.0001410893,"MEAN_MOTION_DOT":0.00001526,"MEAN_MOTION_DDOT":0},{"OBJECT_NAME":"STRIX-7","OBJECT_ID":"2026-112A","EPOCH":"2026-07-10T04:36:43.553664","CLASSIFICATION_TYPE":"U","MEAN_MOTION":15.01585818,"ECCENTRICITY":0.00241251,"INCLINATION":44.9078,"RA_OF_ASC_NODE":71.6101,"ARG_OF_PERICENTER":180.1834,"MEAN_ANOMALY":179.9032,"EPHEMERIS_TYPE":0,"NORAD_CAT_ID":69177,"ELEMENT_SET_NO":999,"REV_AT_EPOCH":733,"BSTAR":0.0002086014,"MEAN_MOTION_DOT":0.00002528,"MEAN_MOTION_DDOT":0},{"OBJECT_NAME":"STRIX-8","OBJECT_ID":"2026-146A","EPOCH":"2026-07-10T00:58:13.419840","CLASSIFICATION_TYPE":"U","MEAN_MOTION":15.04406873,"ECCENTRICITY":0.00079977,"INCLINATION":41.9901,"RA_OF_ASC_NODE":41.6479,"ARG_OF_PERICENTER":348.2849,"MEAN_ANOMALY":11.7791,"EPHEMERIS_TYPE":0,"NORAD_CAT_ID":69701,"ELEMENT_SET_NO":999,"REV_AT_EPOCH":200,"BSTAR":0.00022442774,"MEAN_MOTION_DOT":0.00002999,"MEAN_MOTION_DDOT":0}]}
